0 STRV 1B
1 23126U 94034C   13281.47978322  .00009455  00000-0  13494-2 0  2529
2 23126 007.2548 207.9503 6692625 023.9674 166.8612 03.06696472188634
0 STRV 1B
1 23126U 94034C   13281.99156657  .00011275  00000-0  15991-2 0  2533
2 23126 007.2535 207.6373 6692613 024.5810 011.9326 03.06708254188654
0 STRV 1B
1 23126U 94034C   13283.60721523  .00010582  00000-0  13418-2 0  2546
2 23126 007.2502 206.6484 6694849 026.5048 355.9480 03.06743084188582
0 STRV 1B
1 23126U 94034C   13283.72380366  .00011048  00000-0  15462-2 0  2544
2 23126 007.2511 206.5810 6692584 026.6438 124.6876 03.06742199188702
0 STRV 1B
1 23126U 94034C   13285.34743928  .00010498  00000-0  14430-2 0  2554
2 23126 007.2465 205.5837 6692825 028.5875 117.7141 03.06775517188755
0 STRV 1B
1 23126U 94034C   13287.30503903  .00011004  00000-0  15283-2 0  2561
2 23126 007.2411 204.3817 6692523 030.9297 119.8111 03.06813953188815
0 STRV 1B
1 23126U 94034C   13289.26772661  .00012403  00000-0  16483-2 0  2575
2 23126 007.2369 203.1735 6693364 033.2833 127.7980 03.06858433188879
0 STRV 1B
1 23126U 94034C   13290.45025801  .00006252  00000-0  11205-2 0  2599
2 23126 007.3078 202.6949 6685085 034.3417 354.6135 03.06959761188902
0 STRV 1B
1 23126U 94034C   13290.55438812  .00013605  00000-0  18141-2 0  2585
2 23126 007.2364 202.3827 6693089 034.8208 109.2471 03.06888982188911
0 STRV 1B
1 23126U 94034C   13295.37809222  .00014661  00000-0  18430-2 0  2592
2 23126 007.2276 199.3827 6693313 040.6350 039.5475 03.07012784189067
